BEIDOU-2 IGSO-1 (C06)   
1 36828U 10036A   26063.53912355 -.00000138  00000+0  00000+0 0  9998
2 36828  54.2925 163.9091 0054014 218.9469  78.5819  1.00252363 57044
BEIDOU-2 G4 (C04)       
1 37210U 10057A   26063.49428563 -.00000122  00000+0  00000+0 0  9998
2 37210   3.3870  69.5492 0009048 210.9174 219.7236  1.00272132 56241
BEIDOU-2 IGSO-2 (C07)   
1 37256U 10068A   26063.55016868 -.00000178  00000+0  00000+0 0  9999
2 37256  47.7317 273.1244 0047330 213.1251 341.1802  1.00258965 55745
BEIDOU-2 IGSO-3 (C08)   
1 37384U 11013A   26058.90884667 -.00000154  00000+0  00000+0 0  9999
2 37384  62.2642  41.1818 0035029 190.8154 358.7681  1.00294022 54567
BEIDOU-2 IGSO-4 (C09)   
1 37763U 11038A   26063.65270079 -.00000106  00000+0  00000+0 0  9998
2 37763  54.5895 166.6175 0154495 230.9812  94.2035  1.00265629 53595
BEIDOU-2 IGSO-5 (C10)   
1 37948U 11073A   26063.54783174 -.00000153  00000+0  00000+0 0  9997
2 37948  47.8676 272.8369 0108588 221.1171 320.7210  1.00272598 52087
BEIDOU-2 G5 (C05)       
1 38091U 12008A   26063.10233397  .00000045  00000+0  00000+0 0  9994
2 38091   3.3118  70.3139 0014093 250.3269 296.8388  1.00276264 51318
BEIDOU-2 M3 (C11)       
1 38250U 12018A   26062.40807551 -.00000060  00000+0  00000+0 0  9991
2 38250  55.8472 308.4420 0021171 279.5872  80.2341  1.86229789 93972
BEIDOU-2 M4 (C12)       
1 38251U 12018B   26062.87717712 -.00000061  00000+0  00000+0 0  9993
2 38251  55.7474 307.6486 0012644 286.4281  73.4931  1.86229513 93988
BEIDOU-2 M6 (C14)       
1 38775U 12050B   26063.12433566 -.00000023  00000+0  00000+0 0  9999
2 38775  56.4527  66.3667 0013947 341.7559  18.2197  1.86230925 91355
BEIDOU-2 G6 (C02)       
1 38953U 12059A   26063.10227411 -.00000185  00000+0  00000+0 0  9993
2 38953   4.1554  74.6500 0010671 304.2337 263.7683  1.00269514 48856
BEIDOU-3S IGSO-1S (C31) 
1 40549U 15019A   26063.61908200 -.00000163  00000+0  00000+0 0  9990
2 40549  49.3899 296.7211 0035837 190.4573 354.5406  1.00273677 40025
BEIDOU-3S M2S (C58)     
1 40748U 15037A   26062.54429301 -.00000057  00000+0  00000+0 0  9994
2 40748  54.9636 305.6850 0008875 278.3355  81.6239  1.86231824 72155
BEIDOU-3S M1S (C57)     
1 40749U 15037B   26061.69084880 -.00000053  00000+0  00000+0 0  9995
2 40749  54.9610 305.7025 0004647  29.9008 330.1863  1.86253746 72142
BEIDOU-2 IGSO-6 (C13)   
1 41434U 16021A   26063.64156169 -.00000150  00000+0  00000+0 0  9996
2 41434  60.0869  39.0755 0059805 233.4233 216.5756  1.00278471 36431
BEIDOU-2 G7 (C03)       
1 41586U 16037A   26063.65597302 -.00000363  00000+0  00000+0 0  9996
2 41586   1.4621  68.2063 0007602 341.8962  98.9452  1.00267304  5840
BEIDOU-3 M1 (C19)       
1 43001U 17069A   26062.35283419 -.00000016  00000+0  00000+0 0  9998
2 43001  56.6002  66.5689 0012408 309.5374  50.3827  1.86230953 56637
